SNUGLITE-II
1 52899U 22065F   26113.15961579  .00000747  00000-0  15101-3 0  9993
2 52899  98.2122 258.1147 0007359 186.8596 173.2507 14.64237860202947
MIMAN
1 52900U 22065G   26112.87843648  .00000459  00000-0  10140-3 0  9998
2 52900  98.2177 255.6655 0007404 189.5800 170.5260 14.61777405202368
GREENCUBE (IO-117)
1 53106U 22080B   25051.21822557 -.00000003  00000-0  00000 0 0  9995
2 53106  70.1434 106.3440 0008542  48.0089 312.1297  6.42557744 61200
ROBUSTA 1F (MTCUBE-2)
1 53109U 22080E   26111.99955604 -.00000003  00000-0  00000-0 0  9992
2 53109  70.1477 317.7959 0008829 302.3511  57.6294  6.42583423 88454
BLUEWALKER-3
1 53807U 22111AL  26112.87646557  .00004154  00000-0  12122-3 0  9995
2 53807  53.2300 293.5030 0006414  23.3656 336.7640 15.37624061201692
ELEKTRO-L4
1 55506U 23016A   26111.95614201  .00000000  00000-0  00000-0 0  9992
2 55506   0.0392  28.0602 0000589 238.4624  93.4707  1.00269143 11778
SHARJAHSAT-1
1 55104U 23001CZ  26113.16822836  .00013863  00000-0  27560-3 0  9994
2 55104  97.3203 181.2475 0004188 308.2723  51.8150 15.47064696183982
METEOR M2-3
1 57166U 23091A   26113.22353992 -.00000012  00000-0  13520-4 0  9997
2 57166  98.6127 169.3138 0003435 347.6329  12.4766 14.24041953146695
RESHUCUBE-2 (RS37S)
1 57168U 23091C   26113.15003642  .00006494  00000-0  25834-3 0  9994
2 57168  97.5061 175.2496 0009905 303.9150  56.1145 15.25579586155865
RASSVET 1-1
1 57169U 23091D   26113.15418419  .00005778  00000-0  24647-3 0  9992
2 57169  97.5151 174.6045 0008565 296.7780  63.2579 15.23287990155782
RASSVET 1-2
1 57170U 23091E   26113.15435955  .00005844  00000-0  24929-3 0  9995
2 57170  97.5156 174.6782 0007456 286.5167  73.5251 15.23287279155782
RASSVET 1-3
1 57171U 23091F   26113.15397132  .00005821  00000-0  24822-3 0  9997
2 57171  97.5152 174.6313 0009438 308.8498  51.1896 15.23290412155786
UMKA-1 (RS40S)
1 57172U 23091G   26113.14233927  .00004119  00000-0  19316-3 0  9999
2 57172  97.5093 172.0650 0011550 316.5869  43.4456 15.20185286155643
SATURN (RS43S)
1 57174U 23091J   26113.19008270  .00002353  00000-0  13472-3 0  9992
2 57174  97.5104 167.0716 0012653 344.8283  15.2567 15.13550773155317
CUBEBEL-2 (EU11S)
1 57175U 23091K   26113.19211477  .00009357  00000-0  34643-3 0  9992
2 57175  97.5089 175.9629 0008557 314.2663  45.7873 15.27853453155901
SITRO-AIS-5 (ANOKHIN)
1 57176U 23091L   26113.15504942  .00008196  00000-0  30064-3 0  9994
2 57176  97.5096 176.5745 0009973 299.0658  60.9582 15.28191330155932
ZORKIY-2M
1 57177U 23091M   26113.19602760  .00004767  00000-0  22301-3 0  9991
2 57177  97.5133 172.3535 0012014 312.5631  47.4589 15.20183895155642
CUBESX-HSE-3 (RS42S)
1 57178U 23091N   26113.18893631  .00009228  00000-0  32174-3 0  9996
2 57178  97.5125 178.1310 0009342 287.5462  72.4757 15.29823820156017
PHI-DEMO
1 57181U 23091R   26113.18393568  .00002301  00000-0  12961-3 0  9991
2 57181  97.5114 167.8632 0014263 333.2952  26.7544 15.14145518155360
MONITOR-3 (RS58S)
1 57180U 23091Q   26113.16280227  .00007077  00000-0  27170-3 0  9998
2 57180  97.5119 176.2416 0010243 295.6123  64.4057 15.26732507155892
NORBY-2
1 57179U 23091P   26113.17956060  .00003037  00000-0  16107-3 0  9992
2 57179  97.5140 169.7156 0013742 320.7379  39.2856 15.16058583155455
MONITOR-4 (RS57S)
1 57182U 23091S   26113.14529435  .00007356  00000-0  28150-3 0  9994
2 57182  97.5113 176.1915 0010220 296.3096  63.7092 15.26826921155898
MONITOR-2 (RS39S)
1 57184U 23091U   26113.16262045  .00003665  00000-0  18142-3 0  9998
2 57184  97.5115 171.8096 0009841 308.9067  51.1289 15.18393771155600
SVYATOBOR-1 (RS60S)
1 57187U 23091X   26113.17942095  .00006358  00000-0  25248-3 0  9999
2 57187  97.5126 176.7215 0007890 287.0806  72.9568 15.25667908155922
VIZARD-METEO (RS38S)
1 57189U 23091Z   26113.19791876  .00011747  00000-0  35617-3 0  9991
2 57189  97.5119 181.6486 0005998 260.2029  99.8536 15.34273830156255
SITRO-AIS-6 (CHIRKIN)
1 57192U 23091AC  26113.14316498  .00004632  00000-0  18823-3 0  9998
2 57192  97.5105 175.9617 0010473 304.3198  55.7048 15.25024740155899
SITRO-AIS-8 (SHCHUKIN)
1 57193U 23091AD  26113.13355281  .00010699  00000-0  36314-3 0  9996
2 57193  97.5090 177.9278 0009103 294.6153  65.4138 15.30656339156023
SITRO-AIS-7 (SHEFFER)
1 57194U 23091AE  26113.20118036  .00004401  00000-0  18051-3 0  9992
2 57194  97.5103 175.8720 0010340 305.1932  54.8336 15.24743137155898
AVION KALUGA 650 (RS24S)
1 57195U 23091AF  26113.19465131  .00003982  00000-0  18926-3 0  9996
2 57195  97.5131 173.0058 0008974 306.9792  53.0620 15.19761395155670
SITRO-AIS-10 (KATYS)
1 57199U 23091AK  26113.19071709  .00013824  00000-0  38963-3 0  9993
2 57199  97.5107 182.5003 0005426 262.5188  97.5439 15.36534246156312
SITRO-AIS-9 (BURDAEV)
1 57201U 23091AM  26113.13554328  .00013993  00000-0  39988-3 0  9999
2 57201  97.5106 182.2147 0005614 263.3834  96.6770 15.36098569156295
UTMN-2 (RS27S)
1 57203U 23091AP  26113.17190728  .00008786  00000-0  29861-3 0  9998
2 57203  97.5118 179.6797 0006649 271.2313  88.8166 15.30690304156123
SITRO-AIS-12 (FARTUSHNY)
1 57204U 23091AQ  26113.13634061  .00014088  00000-0  39908-3 0  9993
2 57204  97.5118 182.6490 0005360 255.5258 104.5391 15.36371558156310
AHMAT-1 (RS41S)
1 57206U 23091AS  26113.18936193  .00047060  00000-0  67772-3 0  9997
2 57206  97.5070 189.9425 0004646 217.3386 142.7546 15.55889495156828
SITRO-AIS-11 (SMIRENNY)
1 57208U 23091AU  26113.16409955  .00013360  00000-0  37400-3 0  9999
2 57208  97.5117 182.8913 0005325 255.2001 104.8654 15.36754672156338
KUZGTU-1 (RS47S)
1 57217U 23091AV  26113.13371051  .00008810  00000-0  31903-3 0  9997
2 57217  97.5099 177.0969 0009500 292.2273  67.7958 15.28595583155962
STRATOSAT-TK1-E (RS52SE)
1 57323U 23091AX  26111.95983732  .00399025  00000-0  15165-2 0  9990
2 57323  97.4970 192.4772 0008385 236.0827 123.9647 15.86577796154757
STRATOSAT-TK1-D (RS52SD)
1 57326U 23091BA  26112.76778669  .00152428  00000-0  10134-2 0  9999
2 57326  97.4992 191.7537 0006704 229.1548 130.9136 15.74964060154629
METEOR M2-4
1 59051U 24039A   26113.17587242  .00000019  00000-0  28153-4 0  9990
2 59051  98.6972  73.1787 0006621 338.3591  21.7306 14.22423481111444
PARS-1
1 59065U 24039Q   26113.20283697  .00008878  00000-0  19287-3 0  9994
2 59065  97.4807  92.4513 0008069 324.7518  35.3196 15.44566458120153
SITRO-AIS-25
1 59066U 24039R   26113.22814176  .00003979  00000-0  31208-3 0  9993
2 59066  95.3915 197.3358 0146800 159.5180 201.2017 14.93049120116525
SITRO-AIS-26
1 59067U 24039S   26113.15517201  .00003809  00000-0  30020-3 0  9998
2 59067  95.3917 197.1944 0147046 160.2978 200.4012 14.92857343116501
SITRO-AIS-27
1 59068U 24039T   26113.20762961  .00003606  00000-0  28191-3 0  9991
2 59068  95.3923 197.4770 0146162 158.8225 201.9138 14.93264552116538
SITRO-AIS-28
1 59071U 24039U   26113.18635682  .00005052  00000-0  39350-3 0  9997
2 59071  95.3924 197.5064 0146168 158.6915 202.0485 14.93299664116539
SONATE-2
1 59112U 24043Q   26112.92086664  .00025673  00000-0  38671-3 0  9995
2 59112  97.5476 260.1220 0006963  52.3175 307.8709 15.54769350119299
HORS-1
1 57188U 23091Y   26113.16845056  .00006537  00000-0  25885-3 0  9994
2 57188  97.5103 176.4804 0007386 287.1434  72.8995 15.25754921155922
HORS-2
1 57196U 23091AG  26113.13803654  .00009662  00000-0  33014-3 0  9993
2 57196  97.5120 179.4682 0006631 276.8718  83.1767 15.30486844156104
ZORKIY-2M 6
1 59774U 24092B   26113.16741961  .00007760  00000-0  28938-3 0  9990
2 59774  97.6409 240.8464 0009008  24.1356 336.0303 15.27680613107134
ZORKIY-2M 4
1 59775U 24092C   26113.23805096  .00007880  00000-0  28785-3 0  9992
2 59775  97.6553 242.6027 0009124  26.2116 333.9583 15.28356354107180
SITRO-AIS-53
1 59776U 24092D   26112.84692833  .00014322  00000-0  42457-3 0  9993
2 59776  97.6499 243.7497 0006662 354.4109   5.7058 15.34936215107251
SITRO-AIS-54
1 59777U 24092E   26113.11926558  .00014243  00000-0  42327-3 0  9997
2 59777  97.6496 243.9963 0006737 352.0870   8.0265 15.34859588107298
SITRO-AIS-56
1 59778U 24092F   26112.33866053  .00014983  00000-0  43585-3 0  9992
2 59778  97.6494 243.4516 0007089 354.7810   5.3358 15.35517674107190
RASSVET 1-4
1 59779U 24092G   26113.22912602  .00000137  00000-0  67705-4 0  9991
2 59779  98.6618 232.3492 0012006  15.8305 344.3251 14.31823681101037
RASSVET 1-5
1 59780U 24092H   26113.22904494  .00000124  00000-0  63056-4 0  9994
2 59780  98.6617 232.3423 0012406  17.0287 343.1310 14.31823833101031
RASSVET 1-6
1 59781U 24092J   26113.22763586  .00000129  00000-0  64994-4 0  9997
2 59781  98.6622 232.3460 0012315  17.3403 342.8198 14.31824901101038
SITRO-AIS-55
1 59809U 24092K   26112.90610606  .00013935  00000-0  41679-3 0  9999
2 59809  97.6494 243.6072 0006822 352.8968   7.2176 15.34660731106753
MESAT-1
1 60209U 24125G   26113.08129074  .00037922  00000-0  50979-3 0  9991
2 60209  97.2381 329.5169 0012098  67.6976 292.5562 15.57718699100971
ISTSAT-1
1 60238U 24128D   26113.20161229  .00005402  00000-0  32854-3 0  9998
2 60238  61.9895  40.4428 0045037 120.4600 240.0955 15.10869438 98156
IONOSFERA-M 01
1 61735U 24199A   26113.12838701  .00000026  00000-0  31105-4 0  9992
2 61735  98.7248 346.8612 0000647  21.6701 338.4504 14.22743719119879
IONOSFERA-M 02
1 61736U 24199B   26113.16280653  .00000034  00000-0  34835-4 0  9996
2 61736  98.7246 346.8064 0001885 101.4253 258.7137 14.22746536123009
SITRO-AIS-16
1 61737U 24199C   26113.16243186  .00001991  00000-0  17622-3 0  9994
2 61737  97.3272 315.9215 0005364 244.7818 115.2849 14.97308010123586
SITRO-AIS-15
1 61738U 24199D   26113.14729933  .00001562  00000-0  13917-3 0  9999
2 61738  97.3275 315.9444 0005282 248.8467 111.2191 14.97328136123585
SITRO-AIS-21
1 61739U 24199E   26113.19022941  .00001037  00000-0  99806-4 0  9999
2 61739  97.3294 314.5927 0011035 245.8045 114.2024 14.94904336123532
